O3B MPOWER F1           
1 54755U 22174A   23258.30310281 -.00000022  00000+0  00000+0 0  9993
2 54755   0.0461  16.3889 0004781 172.2077 188.6478  5.00118510 15032
